CCSDS_OMM_VERS = 2.0
CREATION_DATE  = 
ORIGINATOR     = 

OBJECT_NAME    = STARLINK-36739
OBJECT_ID      = 2026-032F
CENTER_NAME    = EARTH
REF_FRAME      = TEME
TIME_SYSTEM    = UTC
MEAN_ELEMENT_THEORY = SGP/SGP4

EPOCH          = 2026-03-05T06:00:02.999808
MEAN_MOTION    = 15.75915597
ECCENTRICITY   = .00015874
INCLINATION    = 97.2838
RA_OF_ASC_NODE = 250.5698
ARG_OF_PERICENTER = 85.3906
MEAN_ANOMALY   = 65.8273

EPHEMERIS_TYPE = 0
CLASSIFICATION_TYPE = U
NORAD_CAT_ID   = 67802
ELEMENT_SET_NO = 999
REV_AT_EPOCH   = 406
BSTAR          = -.72850769E-2
MEAN_MOTION_DOT = -.998437E-2
MEAN_MOTION_DDOT = 0

CCSDS_OMM_VERS = 2.0
CREATION_DATE  = 
ORIGINATOR     = 

OBJECT_NAME    = STARLINK-36768
OBJECT_ID      = 2026-032G
CENTER_NAME    = EARTH
REF_FRAME      = TEME
TIME_SYSTEM    = UTC
MEAN_ELEMENT_THEORY = SGP/SGP4

EPOCH          = 2026-03-05T06:00:02.999808
MEAN_MOTION    = 15.75171052
ECCENTRICITY   = .00014989
INCLINATION    = 97.2840
RA_OF_ASC_NODE = 250.5410
ARG_OF_PERICENTER = 69.6746
MEAN_ANOMALY   = 11.9379

EPHEMERIS_TYPE = 0
CLASSIFICATION_TYPE = U
NORAD_CAT_ID   = 67803
ELEMENT_SET_NO = 999
REV_AT_EPOCH   = 406
BSTAR          = .18844692E-3
MEAN_MOTION_DOT = .28048E-3
MEAN_MOTION_DDOT = 0

CCSDS_OMM_VERS = 2.0
CREATION_DATE  = 
ORIGINATOR     = 

OBJECT_NAME    = STARLINK-36792
OBJECT_ID      = 2026-032H
CENTER_NAME    = EARTH
REF_FRAME      = TEME
TIME_SYSTEM    = UTC
MEAN_ELEMENT_THEORY = SGP/SGP4

EPOCH          = 2026-03-05T05:42:54.533952
MEAN_MOTION    = 15.75223237
ECCENTRICITY   = .00014391
INCLINATION    = 97.2838
RA_OF_ASC_NODE = 250.5205
ARG_OF_PERICENTER = 67.6964
MEAN_ANOMALY   = 292.4454

EPHEMERIS_TYPE = 0
CLASSIFICATION_TYPE = U
NORAD_CAT_ID   = 67804
ELEMENT_SET_NO = 999
REV_AT_EPOCH   = 408
BSTAR          = .10673954E-2
MEAN_MOTION_DOT = .162375E-2
MEAN_MOTION_DDOT = 0

CCSDS_OMM_VERS = 2.0
CREATION_DATE  = 
ORIGINATOR     = 

OBJECT_NAME    = STARLINK-36782
OBJECT_ID      = 2026-032J
CENTER_NAME    = EARTH
REF_FRAME      = TEME
TIME_SYSTEM    = UTC
MEAN_ELEMENT_THEORY = SGP/SGP4

EPOCH          = 2026-03-05T06:48:12.511296
MEAN_MOTION    = 15.80937231
ECCENTRICITY   = .00015285
INCLINATION    = 97.2824
RA_OF_ASC_NODE = 250.6121
ARG_OF_PERICENTER = 52.7430
MEAN_ANOMALY   = 307.3978

EPHEMERIS_TYPE = 0
CLASSIFICATION_TYPE = U
NORAD_CAT_ID   = 67805
ELEMENT_SET_NO = 999
REV_AT_EPOCH   = 409
BSTAR          = .16384131E-2
MEAN_MOTION_DOT = .327575E-2
MEAN_MOTION_DDOT = 0

CCSDS_OMM_VERS = 2.0
CREATION_DATE  = 
ORIGINATOR     = 

OBJECT_NAME    = STARLINK-36389
OBJECT_ID      = 2026-032K
CENTER_NAME    = EARTH
REF_FRAME      = TEME
TIME_SYSTEM    = UTC
MEAN_ELEMENT_THEORY = SGP/SGP4

EPOCH          = 2026-03-05T06:00:02.999808
MEAN_MOTION    = 15.75170550
ECCENTRICITY   = .00014925
INCLINATION    = 97.2834
RA_OF_ASC_NODE = 250.5618
ARG_OF_PERICENTER = 85.2115
MEAN_ANOMALY   = 46.3888

EPHEMERIS_TYPE = 0
CLASSIFICATION_TYPE = U
NORAD_CAT_ID   = 67806
ELEMENT_SET_NO = 999
REV_AT_EPOCH   = 406
BSTAR          = .18954852E-3
MEAN_MOTION_DOT = .28212E-3
MEAN_MOTION_DDOT = 0

CCSDS_OMM_VERS = 2.0
CREATION_DATE  = 
ORIGINATOR     = 

OBJECT_NAME    = STARLINK-36382
OBJECT_ID      = 2026-032L
CENTER_NAME    = EARTH
REF_FRAME      = TEME
TIME_SYSTEM    = UTC
MEAN_ELEMENT_THEORY = SGP/SGP4

EPOCH          = 2026-03-05T06:00:02.999808
MEAN_MOTION    = 15.75167481
ECCENTRICITY   = .00017563
INCLINATION    = 97.2835
RA_OF_ASC_NODE = 250.5657
ARG_OF_PERICENTER = 97.3199
MEAN_ANOMALY   = 46.2835

EPHEMERIS_TYPE = 0
CLASSIFICATION_TYPE = U
NORAD_CAT_ID   = 67807
ELEMENT_SET_NO = 999
REV_AT_EPOCH   = 400
BSTAR          = .27478225E-3
MEAN_MOTION_DOT = .41014E-3
MEAN_MOTION_DDOT = 0

CCSDS_OMM_VERS = 2.0
CREATION_DATE  = 
ORIGINATOR     = 

OBJECT_NAME    = STARLINK-36811
OBJECT_ID      = 2026-032M
CENTER_NAME    = EARTH
REF_FRAME      = TEME
TIME_SYSTEM    = UTC
MEAN_ELEMENT_THEORY = SGP/SGP4

EPOCH          = 2026-03-05T06:43:30.030816
MEAN_MOTION    = 15.80764410
ECCENTRICITY   = .00015436
INCLINATION    = 97.2822
RA_OF_ASC_NODE = 250.6159
ARG_OF_PERICENTER = 5.0631
MEAN_ANOMALY   = 355.0652

EPHEMERIS_TYPE = 0
CLASSIFICATION_TYPE = U
NORAD_CAT_ID   = 67808
ELEMENT_SET_NO = 999
REV_AT_EPOCH   = 409
BSTAR          = .16895588E-2
MEAN_MOTION_DOT = .335462E-2
MEAN_MOTION_DDOT = 0

CCSDS_OMM_VERS = 2.0
CREATION_DATE  = 
ORIGINATOR     = 

OBJECT_NAME    = STARLINK-36795
OBJECT_ID      = 2026-032N
CENTER_NAME    = EARTH
REF_FRAME      = TEME
TIME_SYSTEM    = UTC
MEAN_ELEMENT_THEORY = SGP/SGP4

EPOCH          = 2026-03-05T05:33:45.379008
MEAN_MOTION    = 15.75241895
ECCENTRICITY   = .00013185
INCLINATION    = 97.2834
RA_OF_ASC_NODE = 250.5284
ARG_OF_PERICENTER = 61.5281
MEAN_ANOMALY   = 298.6117

EPHEMERIS_TYPE = 0
CLASSIFICATION_TYPE = U
NORAD_CAT_ID   = 67809
ELEMENT_SET_NO = 999
REV_AT_EPOCH   = 408
BSTAR          = .12812983E-2
MEAN_MOTION_DOT = .19587E-2
MEAN_MOTION_DDOT = 0

CCSDS_OMM_VERS = 2.0
CREATION_DATE  = 
ORIGINATOR     = 

OBJECT_NAME    = STARLINK-36807
OBJECT_ID      = 2026-032P
CENTER_NAME    = EARTH
REF_FRAME      = TEME
TIME_SYSTEM    = UTC
MEAN_ELEMENT_THEORY = SGP/SGP4

EPOCH          = 2026-03-05T06:00:02.999808
MEAN_MOTION    = 15.76429314
ECCENTRICITY   = .00021777
INCLINATION    = 97.2837
RA_OF_ASC_NODE = 250.5857
ARG_OF_PERICENTER = 78.0959
MEAN_ANOMALY   = 114.7290

EPHEMERIS_TYPE = 0
CLASSIFICATION_TYPE = U
NORAD_CAT_ID   = 67810
ELEMENT_SET_NO = 999
REV_AT_EPOCH   = 406
BSTAR          = -.11021121E-1
MEAN_MOTION_DOT = -.1525787E-1
MEAN_MOTION_DDOT = 0

CCSDS_OMM_VERS = 2.0
CREATION_DATE  = 
ORIGINATOR     = 

OBJECT_NAME    = STARLINK-36733
OBJECT_ID      = 2026-032Q
CENTER_NAME    = EARTH
REF_FRAME      = TEME
TIME_SYSTEM    = UTC
MEAN_ELEMENT_THEORY = SGP/SGP4

EPOCH          = 2026-03-05T06:38:41.498016
MEAN_MOTION    = 15.80881819
ECCENTRICITY   = .00013494
INCLINATION    = 97.2823
RA_OF_ASC_NODE = 250.6192
ARG_OF_PERICENTER = 54.1072
MEAN_ANOMALY   = 306.0322

EPHEMERIS_TYPE = 0
CLASSIFICATION_TYPE = U
NORAD_CAT_ID   = 67811
ELEMENT_SET_NO = 999
REV_AT_EPOCH   = 409
BSTAR          = .10321527E-2
MEAN_MOTION_DOT = .202837E-2
MEAN_MOTION_DDOT = 0

CCSDS_OMM_VERS = 2.0
CREATION_DATE  = 
ORIGINATOR     = 

OBJECT_NAME    = STARLINK-36377
OBJECT_ID      = 2026-032R
CENTER_NAME    = EARTH
REF_FRAME      = TEME
TIME_SYSTEM    = UTC
MEAN_ELEMENT_THEORY = SGP/SGP4

EPOCH          = 2026-03-05T06:34:07.433760
MEAN_MOTION    = 15.80872403
ECCENTRICITY   = .00013689
INCLINATION    = 97.2828
RA_OF_ASC_NODE = 250.6241
ARG_OF_PERICENTER = 40.1682
MEAN_ANOMALY   = 319.9687

EPHEMERIS_TYPE = 0
CLASSIFICATION_TYPE = U
NORAD_CAT_ID   = 67812
ELEMENT_SET_NO = 999
REV_AT_EPOCH   = 409
BSTAR          = .95341374E-3
MEAN_MOTION_DOT = .186928E-2
MEAN_MOTION_DDOT = 0

CCSDS_OMM_VERS = 2.0
CREATION_DATE  = 
ORIGINATOR     = 

OBJECT_NAME    = STARLINK-36732
OBJECT_ID      = 2026-032S
CENTER_NAME    = EARTH
REF_FRAME      = TEME
TIME_SYSTEM    = UTC
MEAN_ELEMENT_THEORY = SGP/SGP4

EPOCH          = 2026-03-05T06:35:31.387776
MEAN_MOTION    = 15.80862182
ECCENTRICITY   = .00014455
INCLINATION    = 97.2826
RA_OF_ASC_NODE = 250.6214
ARG_OF_PERICENTER = 81.2842
MEAN_ANOMALY   = 278.8590

EPHEMERIS_TYPE = 0
CLASSIFICATION_TYPE = U
NORAD_CAT_ID   = 67813
ELEMENT_SET_NO = 999
REV_AT_EPOCH   = 409
BSTAR          = .89101661E-3
MEAN_MOTION_DOT = .174351E-2
MEAN_MOTION_DDOT = 0

